{"fetched_at":"2026-07-16T06:43:01.746Z","source":"https://celestrak.org/NORAD/elements/gp.php?NAME=ICEYE&FORMAT=JSON","constellation":"iceye","records":[{"OBJECT_NAME":"ICEYE-X72","OBJECT_ID":"2026-067CS","EPOCH":"2026-07-15T22:00:01.999584","CLASSIFICATION_TYPE":"U","MEAN_MOTION":14.96250466,"ECCENTRICITY":0.00004631,"INCLINATION":97.7645,"RA_OF_ASC_NODE":154.8836,"ARG_OF_PERICENTER":153.1517,"MEAN_ANOMALY":267.4123,"EPHEMERIS_TYPE":0,"NORAD_CAT_ID":68504,"ELEMENT_SET_NO":999,"REV_AT_EPOCH":561,"BSTAR":0.0014750024,"MEAN_MOTION_DOT":0.00016623,"MEAN_MOTION_DDOT":0},{"OBJECT_NAME":"ICEYE-X78","OBJECT_ID":"2026-100R","EPOCH":"2026-07-15T15:35:11.122656","CLASSIFICATION_TYPE":"U","MEAN_MOTION":14.91812518,"ECCENTRICITY":0.00035647,"INCLINATION":97.7333,"RA_OF_ASC_NODE":93.5733,"ARG_OF_PERICENTER":54.1763,"MEAN_ANOMALY":305.9786,"EPHEMERIS_TYPE":0,"NORAD_CAT_ID":68995,"ELEMENT_SET_NO":999,"REV_AT_EPOCH":1094,"BSTAR":0.000055192087,"MEAN_MOTION_DOT":0.00000502,"MEAN_MOTION_DDOT":0},{"OBJECT_NAME":"ICEYE-X82","OBJECT_ID":"2026-100S","EPOCH":"2026-07-15T06:27:17.738784","CLASSIFICATION_TYPE":"U","MEAN_MOTION":14.91424459,"ECCENTRICITY":0.00057094,"INCLINATION":97.7328,"RA_OF_ASC_NODE":93.1444,"ARG_OF_PERICENTER":63.7968,"MEAN_ANOMALY":296.3837,"EPHEMERIS_TYPE":0,"NORAD_CAT_ID":68996,"ELEMENT_SET_NO":999,"REV_AT_EPOCH":1088,"BSTAR":0.00013910541,"MEAN_MOTION_DOT":0.00001335,"MEAN_MOTION_DDOT":0}]}
