ICEYE-X72               
1 68504U 26067CS  26196.91668981  .00016623  00000+0  14750-2 0  9992
2 68504  97.7645 154.8836 0000463 153.1517 267.4123 14.96250466  5614
ICEYE-X78               
1 68995U 26100R   26196.64943429  .00000502  00000+0  55192-4 0  9993
2 68995  97.7333  93.5733 0003564  54.1763 305.9786 14.91812518 10947
ICEYE-X82               
1 68996U 26100S   26196.26895531  .00001335  00000+0  13911-3 0  9999
2 68996  97.7328  93.1444 0005709  63.7968 296.3837 14.91424459 10889
